{
    "links": {
        "self": "http://www.neowsapp.com/rest/v1/neo/3989208?api_key=iIulBulltgU6a56xZRHN4H3l9WmuAYTsLGpBGhQ2"
    },
    "id": "3989208",
    "neo_reference_id": "3989208",
    "name": "(2020 BH9)",
    "designation": "2020 BH9",
    "nasa_jpl_url": "http://ssd.jpl.nasa.gov/sbdb.cgi?sstr=3989208",
    "absolute_magnitude_h": 26.719,
    "estimated_diameter": {
        "kilometers": {
            "estimated_diameter_min": 0.0120435627,
            "estimated_diameter_max": 0.0269302248
        },
        "meters": {
            "estimated_diameter_min": 12.0435626625,
            "estimated_diameter_max": 26.9302248047
        },
        "miles": {
            "estimated_diameter_min": 0.0074835206,
            "estimated_diameter_max": 0.0167336607
        },
        "feet": {
            "estimated_diameter_min": 39.5130021257,
            "estimated_diameter_max": 88.3537587482
        }
    },
    "is_potentially_hazardous_asteroid": false,
    "close_approach_data": [
        {
            "close_approach_date": "2018-05-05",
            "close_approach_date_full": "2018-May-05 05:14",
            "epoch_date_close_approach": 1525497240000,
            "relative_velocity": {
                "kilometers_per_second": "12.9961771614",
                "kilometers_per_hour": "46786.2377810422",
                "miles_per_hour": "29071.148692337"
            },
            "miss_distance": {
                "astronomical": "0.0842705658",
                "lunar": "32.7812500962",
                "kilometers": "12606697.147374846",
                "miles": "7833438.3660150348"
            },
            "orbiting_body": "Mars"
        },
        {
            "close_approach_date": "2020-02-14",
            "close_approach_date_full": "2020-Feb-14 21:31",
            "epoch_date_close_approach": 1581715860000,
            "relative_velocity": {
                "kilometers_per_second": "4.9606099198",
                "kilometers_per_hour": "17858.1957113856",
                "miles_per_hour": "11096.3883296662"
            },
            "miss_distance": {
                "astronomical": "0.0549804441",
                "lunar": "21.3873927549",
                "kilometers": "8224957.329014067",
                "miles": "5110751.4955534446"
            },
            "orbiting_body": "Earth"
        }
    ],
    "orbital_data": {
        "orbit_id": "3",
        "orbit_determination_date": "2020-02-14 04:59:11",
        "first_observation_date": "2020-01-24",
        "last_observation_date": "2020-02-14",
        "data_arc_in_days": 21,
        "observations_used": 20,
        "orbit_uncertainty": "7",
        "minimum_orbit_intersection": ".0510128",
        "jupiter_tisserand_invariant": "4.198",
        "epoch_osculation": "2459000.5",
        "eccentricity": ".3757196492021683",
        "semi_major_axis": "1.649065923267104",
        "inclination": "2.805164796487044",
        "ascending_node_longitude": "293.8711732973153",
        "orbital_period": "773.4913351323488",
        "perihelion_distance": "1.029479453065938",
        "perihelion_argument": "221.3693153958373",
        "aphelion_distance": "2.268652393468271",
        "perihelion_time": "2458902.438759865997",
        "mean_anomaly": "45.63987318901359",
        "mean_motion": ".4654221497366896",
        "equinox": "J2000",
        "orbit_class": {
            "orbit_class_type": "AMO",
            "orbit_class_description": "Near-Earth asteroid orbits similar to that of 1221 Amor",
            "orbit_class_range": "1.017 AU < q (perihelion) < 1.3 AU"
        }
    },
    "is_sentry_object": false
}